STARLINK-31536          
1 59192C 24045Q   26108.68798611 -.00036351  00000+0 -13168-2 0  1086
2 59192  43.0030 226.6494 0001870 279.3984 259.0999 15.27591975    14
STARLINK-31548          
1 59193C 24045R   26108.69076389  .00021925  00000+0  79404-3 0  1084
2 59193  43.0003 227.0102 0001354 273.3961 124.7371 15.27570854    17
STARLINK-31542          
1 59194C 24045S   26108.67340278  .00030287  00000+0  10968-2 0  1084
2 59194  43.0015 226.3482 0001393 281.2184 339.6812 15.27569229    13
STARLINK-31554          
1 59195C 24045T   26108.75465278  .00055573  00000+0  20144-2 0  1084
2 59195  43.0012 226.4653 0001637 276.4357 191.3497 15.27525546    17
STARLINK-31558          
1 59196C 24045U   26108.69770833  .00027615  00000+0  10014-2 0  1085
2 59196  43.0019 226.2621 0001436 285.3279  88.1727 15.27526123    18
STARLINK-31275          
1 59197C 24045V   26108.68034722  .00011056  00000+0  40037-3 0  1086
2 59197  43.0002 226.9345 0001493 275.2053 122.1715 15.27579209    11
STARLINK-31590          
1 59198C 24045W   26108.76229167  .00016297  00000+0  59046-3 0  1087
2 59198  43.0001 226.5697 0001316 284.9235 161.1961 15.27560595    14
STARLINK-31567          
1 59199C 24045X   26108.71298611  .00052011  00000+0  18835-2 0  1087
2 59199  43.0030 226.3646 0001425 280.3118  99.4970 15.27557752    14
STARLINK-31503          
1 59200C 24045Y   26108.76715278  .00084828  00000+0  30747-2 0  1085
2 59200  43.0029 226.1094 0001718 266.9117  29.9035 15.27512320    16
STARLINK-31603          
1 59201C 24046A   26108.71506944 -.00051013  00000+0 -17183-2 0  1081
2 59201  53.1579 329.7098 0001410  96.9092 264.7127 15.30235688    19
STARLINK-31602          
1 59202C 24046B   26108.70465278 -.00007868  00000+0 -26505-3 0  1083
2 59202  53.1600 329.3504 0001193  87.0636  60.7414 15.30212632    13
STARLINK-31577          
1 59203C 24046C   26108.74423611 -.00039166  00000+0 -13194-2 0  1088
2 59203  53.1586 328.9180 0001304  95.5106  38.4270 15.30227951    14
STARLINK-31522          
1 59204C 24046D   26108.74423611 -.00033698  00000+0 -11356-2 0  1081
2 59204  53.1573 329.5517 0001293  93.8301  80.2018 15.30211826    16
STARLINK-31586          
1 59205C 24046E   26108.71506944 -.00011008  00000+0 -37080-3 0  1084
2 59205  53.1592 329.4050 0001297  88.0676  64.8084 15.30215694    12
STARLINK-31247          
1 59206C 24046F   26108.71506944 -.00034484  00000+0 -11617-2 0  1085
2 59206  53.1577 329.5532 0001218  92.8063 344.4440 15.30225167    17
STARLINK-31591          
1 59207C 24046G   26108.67131944 -.00008196  00000+0 -27612-3 0  1089
2 59207  53.1597 329.5302 0001264  94.4441 217.9962 15.30210089    14
STARLINK-31576          
1 59208C 24046H   26108.71368056 -.00051774  00000+0 -17442-2 0  1080
2 59208  53.1602 329.2405 0001285  95.3589 137.1016 15.30231198    16
STARLINK-31601          
1 59209C 24046J   26108.74979167 -.00054676  00000+0 -18419-2 0  1084
2 59209  53.1595 328.9578 0001328  91.6028  38.0651 15.30234665    16
STARLINK-31520          
1 59210C 24046K   26108.69145833 -.00004774  00000+0 -16080-3 0  1082
2 59210  53.1581 329.6278 0001204  95.3491 229.2163 15.30213771    13
STARLINK-31496          
1 59211C 24046L   26108.74145833 -.00013094  00000+0 -44131-3 0  1082
2 59211  53.1594 316.6265 0001352  72.2530 165.0495 15.30199144    14
STARLINK-31492          
1 59212C 24046M   26108.70048611 -.00005416  00000+0 -18240-3 0  1086
2 59212  53.1580 329.7901 0001243  97.0165 172.6075 15.30217618    15
STARLINK-31517          
1 59213C 24046N   26108.76576389 -.00051528  00000+0 -17360-2 0  1087
2 59213  53.1595 329.1281 0001284  89.5911  17.5705 15.30230236    15
STARLINK-31604          
1 59214C 24046P   26108.74631944 -.00041267  00000+0 -13898-2 0  1086
2 59214  53.1594 329.2229 0001313  90.7961 251.7625 15.30235493    13
STARLINK-31434          
1 59215C 24046Q   26108.75465278 -.00078411  00000+0 -26421-2 0  1080
2 59215  53.1592 328.9006 0001312  90.4876  83.4132 15.30238237    14
STARLINK-31417          
1 59216C 24046R   26108.76020833 -.00083480  00000+0 -28128-2 0  1084
2 59216  53.1577 329.5083 0001237  92.4215 152.1947 15.30242150    12
STARLINK-31499          
1 59217C 24046S   26108.75743056 -.00052713  00000+0 -17758-2 0  1085
2 59217  53.1604 328.9996 0001322  89.2765  41.7687 15.30232381    18
STARLINK-31421          
1 59218C 24046T   26108.67965278  .00001114  00000+0  37530-4 0  1088
2 59218  53.1599 329.3303 0001236  91.9504 359.4742 15.30197771    18
STARLINK-31518          
1 59219C 24046U   26108.67270833  .00002466  00000+0  83112-4 0  1083
2 59219  53.1601 329.4623 0001363  98.3439 250.8613 15.30196454    16
STARLINK-31523          
1 59220C 24046V   26108.71993056 -.00013974  00000+0 -47069-3 0  1087
2 59220  53.1587 329.4136 0001306  92.4892  69.7258 15.30217244    18
STARLINK-31516          
1 59221C 24046W   26108.75048611 -.00035918  00000+0 -12099-2 0  1086
2 59221  53.1599 328.9984 0001305  92.7798  17.4120 15.30226497    12
STARLINK-31490          
1 59222C 24046X   26108.69701389 -.00002333  00000+0 -78602-4 0  1087
2 59222  53.1574 329.7719 0001236  95.8786 172.0638 15.30208574    13
STARLINK-31420          
1 59223C 24046Y   26108.76090278 -.00049783  00000+0 -16771-2 0  1081
2 59223  53.1572 329.4414 0001202  93.3037 184.2277 15.30231051    16
STARLINK-31305          
1 59232C 24049B   26108.73937500 -.00073702  00000+0 -26693-2 0  1081
2 59232  43.0010 277.1419 0001488 271.6465  83.6184 15.27617062    12
STARLINK-31459          
1 59233C 24049C   26108.67756944 -.00075059  00000+0 -27179-2 0  1083
2 59233  42.9999 277.7092 0001334 271.0640  18.9941 15.27624994    13
STARLINK-31438          
1 59234C 24049D   26108.69006944 -.00090511  00000+0 -32775-2 0  1082
2 59234  43.0022 266.6326 0001702 268.6807 351.0692 15.27631327    18
STARLINK-31467          
1 59235C 24049E   26108.75743056 -.00045974  00000+0 -16653-2 0  1082
2 59235  43.0004 277.2246 0001372 271.8282 112.0905 15.27598821    17
STARLINK-31444          
1 59236C 24049F   26108.73312500  .00089612  00000+0  27639-2 0  1088
2 59236  43.0020 207.1606 0005004 351.5327 146.2027 15.32705171    18
STARLINK-31505          
1 59237C 24049G   26108.69493056 -.00062801  00000+0 -22746-2 0  1087
2 59237  42.9997 277.6711 0001435 274.2755  90.1567 15.27610063    14
STARLINK-31494          
1 59238C 24049H   26108.73798611 -.00088714  00000+0 -32130-2 0  1087
2 59238  43.0011 277.1333 0001914 269.3747  92.3944 15.27624152    14
STARLINK-31303          
1 59239C 24049J   26108.69006944 -.00120590  00000+0 -43675-2 0  1089
2 59239  43.0000 266.7879 0001420 254.8746 272.9835 15.27640113    12
STARLINK-31408          
1 59240C 24049K   26108.76506944 -.00054490  00000+0 -19738-2 0  1082
2 59240  43.0022 277.5033 0001323 271.5068  20.0535 15.27602984    18
STARLINK-31427          
1 59241C 24049L   26108.76090278 -.00047096  00000+0 -17050-2 0  1080
2 59241  43.0024 277.5487 0001231 280.3215 327.0129 15.27616675    15
STARLINK-31423          
1 59242C 24049M   26108.68104167 -.00065441  00000+0 -23699-2 0  1085
2 59242  43.0018 277.9387 0001320 264.5828 298.4886 15.27616146    19
STARLINK-31433          
1 59243C 24049N   26108.71506944 -.00099041  00000+0 -35872-2 0  1088
2 59243  43.0006 277.4124 0001331 271.4305 260.4909 15.27628704    18
STARLINK-31285          
1 59244C 24049P   26108.74562500 -.00101450  00000+0 -36750-2 0  1086
2 59244  43.0018 277.0379 0001591 275.0020 150.0543 15.27623101    16
STARLINK-31284          
1 59246C 24049R   26108.74215278 -.00058759  00000+0 -21284-2 0  1084
2 59246  43.0004 277.2094 0001418 275.6589  66.5900 15.27604558    16
STARLINK-31424          
1 59247C 24049S   26108.69284722 -.00094161  00000+0 -34098-2 0  1083
2 59247  43.0001 274.1444 0001345 267.2155 111.3961 15.27632349    19
STARLINK-31405          
1 59248C 24049T   26108.68729167 -.00097035  00000+0 -35135-2 0  1086
2 59248  43.0003 277.8012 0001397 267.4101  12.5283 15.27637228    13
STARLINK-31426          
1 59249C 24049U   26108.76784722 -.00085907  00000+0 -31116-2 0  1084
2 59249  43.0009 277.3909 0001286 267.8805  74.3641 15.27620710    14
STARLINK-31407          
1 59250C 24049V   26108.76645833 -.00018011  00000+0 -65244-3 0  1087
2 59250  43.0030 265.9774 0001753 276.1298 136.1937 15.27582799    10
STARLINK-31393          
1 59252C 24049X   26108.68798611 -.00107460  00000+0 -38920-2 0  1080
2 59252  43.0010 263.0882 0001624 274.6176   6.3860 15.27633055    19
STARLINK-31425          
1 59253C 24049Y   26108.71576389 -.00053408  00000+0 -19345-2 0  1083
2 59253  43.0013 277.3081 0001540 270.9698 307.2144 15.27604488    13
STARLINK-31659          
1 59254C 24050A   26108.70187500  .00035871  00000+0  12082-2 0  1081
2 59254  53.1594 352.9671 0001132  97.5712 321.9311 15.30193284    12
STARLINK-31629          
1 59255C 24050B   26108.71020833  .00035441  00000+0  11938-2 0  1080
2 59255  53.1594 355.1418 0001320  94.2897 327.5145 15.30192559    15
STARLINK-31652          
1 59256C 24050C   26108.73659722  .00021624  00000+0  72821-3 0  1085
2 59256  53.1607 354.8823 0001271  92.5972 184.4438 15.30207885    11
STARLINK-31637          
1 59258C 24050E   26108.74284722  .00017108  00000+0  57622-3 0  1086
2 59258  53.1610 354.7848 0001243  95.3113 251.0889 15.30203834    11
STARLINK-31506          
1 59259C 24050F   26108.70187500  .00039933  00000+0  13448-2 0  1086
2 59259  53.1598 355.1462 0001097  99.1206 294.2112 15.30197782    18
STARLINK-31639          
1 59261C 24050H   26108.70951389  .00030664  00000+0  10327-2 0  1088
2 59261  53.1609 354.9734 0001416  91.9552  53.2582 15.30200876    15
STARLINK-31598          
1 59263C 24050K   26108.74284722  .00013804  00000+0  46425-3 0  1080
2 59263  53.1592 355.3273 0001509  71.4933 349.8440 15.30252241    10
